H1 CPF 01  gfz 2021 03 27 01  5861 terrasarx 
H2 0702601  6201 31698    2021 03 27 00 59 42 2021 04 01 00 00 42   120 1 1  0 0 0
H9
10 0 59304  55422.000000  0   -3562126.626  -1985179.828  -5559167.700
10 0 59304  55542.000000  0   -3016161.907  -1419553.814  -6035292.687
10 0 59304  55662.000000  0   -2407862.570   -839409.538  -6406000.794
10 0 59304  55782.000000  0   -1747651.979   -255818.789  -6664900.448
10 0 59304  55902.000000  0   -1047021.937    320295.119  -6807535.305
10 0 59304  56022.000000  0    -318335.541    878356.276  -6831451.932
10 0 59304  56142.000000  0     425386.189   1408325.468  -6736237.371
10 0 59304  56262.000000  0    1170690.173   1900875.428  -6523526.647
10 0 59304  56382.000000  0    1903929.933   2347552.444  -6196979.244
10 0 59304  56502.000000  0    2611510.664   2740920.241  -5762222.766
10 0 59304  56622.000000  0    3280138.127   3074684.009  -5226764.623
10 0 59304  56742.000000  0    3897066.555   3343792.970  -4599874.298
10 0 59304  56862.000000  0    4450344.302   3544520.788  -3892434.467
10 0 59304  56982.000000  0    4929050.742   3674520.168  -3116761.195
10 0 59304  57102.000000  0    5323517.812   3732850.452  -2286395.605
10 0 59304  57222.000000  0    5625532.389   3719978.286  -1415870.868
10 0 59304  57342.000000  0    5828514.119   3637748.969   -520456.703
10 0 59304  57462.000000  0    5927663.173   3489329.466    384112.180
10 0 59304  57582.000000  0    5920074.763   3279124.138   1281919.310
10 0 59304  57702.000000  0    5804815.386   3012664.521   2157155.189
10 0 59304  57822.000000  0    5582959.269   2696477.006   2994404.204
10 0 59304  57942.000000  0    5257584.351   2337930.907   3778924.928
10 0 59304  58062.000000  0    4833726.163   1945070.542   4496915.848
10 0 59304  58182.000000  0    4318292.982   1526436.653   5135759.368
10 0 59304  58302.000000  0    3719947.608   1090881.851   5684244.076
10 0 59304  58422.000000  0    3048951.414    647383.548   6132759.906
10 0 59304  58542.000000  0    2316980.013    204859.369   6473458.918
10 0 59304  58662.000000  0    1536916.285   -228010.143   6700386.089
10 0 59304  58782.000000  0     722620.984   -642950.680   6809579.304
10 0 59304  58902.000000  0    -111316.064  -1032251.780   6799134.145
10 0 59304  59022.000000  0    -949837.377  -1388909.331   6669234.137
10 0 59304  59142.000000  0   -1777688.881  -1706751.737   6422146.679
10 0 59304  59262.000000  0   -2579695.325  -1980546.120   6062184.881
10 0 59304  59382.000000  0   -3341037.149  -2206084.430   5595639.335
10 0 59304  59502.000000  0   -4047528.797  -2380250.069   5030675.991
10 0 59304  59622.000000  0   -4685888.338  -2501061.445   4377197.766
10 0 59304  59742.000000  0   -5243993.482  -2567691.160   3646674.690
10 0 59304  59862.000000  0   -5711118.766  -2580460.405   2851945.403
10 0 59304  59982.000000  0   -6078150.034  -2540809.714   2006992.825
10 0 59304  60102.000000  0   -6337771.532  -2451247.161   1126695.573
10 0 59304  60222.000000  0   -6484617.809  -2315272.403    226558.506
10 0 59304  60342.000000  0   -6515386.859  -2137279.448   -677567.785
10 0 59304  60462.000000  0   -6428912.796  -1922440.768  -1569775.924
10 0 59304  60582.000000  0   -6226193.470  -1676575.963  -2434390.521
10 0 59304  60702.000000  0   -5910374.828  -1406008.608  -3256249.911
10 0 59304  60822.000000  0   -5486692.955  -1117414.987  -4020975.558
10 0 59304  60942.000000  0   -4962376.006   -817668.575  -4715223.834
10 0 59304  61062.000000  0   -4346508.827   -513683.714  -5326915.598
10 0 59304  61182.000000  0   -3649863.477   -212262.956  -5845439.387
10 0 59304  61302.000000  0   -2884701.046     80049.024  -6261825.000
10 0 59304  61422.000000  0   -2064550.310    357101.508  -6568886.516
10 0 59304  61542.000000  0   -1203966.577    613260.910  -6761335.161
10 0 59304  61662.000000  0    -318275.292    843520.293  -6835860.445
10 0 59304  61782.000000  0     576695.034   1043593.896  -6791179.657
10 0 59304  61902.000000  0    1464887.587   1209993.707  -6628059.174
10 0 59304  62022.000000  0    2330299.853   1340089.477  -6349304.458
10 0 59304  62142.000000  0    3157266.765   1432150.171  -5959716.700
10 0 59304  62262.000000  0    3930740.443   1485365.670  -5466017.364
10 0 59304  62382.000000  0    4636562.483   1499849.106  -4876743.590
10 0 59304  62502.000000  0    5261727.124   1476619.960  -4202112.401
10 0 59304  62622.000000  0    5794627.647   1417567.415  -3453853.172
10 0 59304  62742.000000  0    6225280.968   1325394.398  -2645012.079
10 0 59304  62862.000000  0    6545526.812   1203543.518  -1789730.236
10 0 59304  62982.000000  0    6749195.001   1056106.286   -902996.933
10 0 59304  63102.000000  0    6832235.046    887716.761      -383.608
10 0 59304  63222.000000  0    6792803.755    703433.298    902235.614
10 0 59304  63342.000000  0    6631310.698    508610.956   1788969.988
10 0 59304  63462.000000  0    6350418.540    308766.535   2644201.839
10 0 59304  63582.000000  0    5954995.795    109441.237   3452870.207
10 0 59304  63702.000000  0    5452026.145    -83936.529   4200742.963
10 0 59304  63822.000000  0    4850476.111   -266182.568   4874670.206
10 0 59304  63942.000000  0    4161126.069   -432482.106   5462817.783
10 0 59304  64062.000000  0    3396365.398   -578504.488   5954872.589
10 0 59304  64182.000000  0    2569961.453   -700503.834   6342218.536
10 0 59304  64302.000000  0    1696805.616   -795405.405   6618081.554
10 0 59304  64422.000000  0     792640.926   -860875.507   6777643.290
10 0 59304  64542.000000  0    -126224.960   -895373.662   6818119.717
10 0 59304  64662.000000  0   -1043213.859   -898186.115   6738805.343
10 0 59304  64782.000000  0   -1941774.820   -869440.373   6541084.091
10 0 59304  64902.000000  0   -2805681.101   -810099.885   6228406.287
10 0 59304  65022.000000  0   -3619322.491   -721939.393   5806233.513
10 0 59304  65142.000000  0   -4367990.475   -607501.611   5281950.134
10 0 59304  65262.000000  0   -5038150.248   -470036.104   4664740.448
10 0 59304  65382.000000  0   -5617693.081   -313420.855   3965432.375
10 0 59304  65502.000000  0   -6096163.792   -142068.273   3196310.421
10 0 59304  65622.000000  0   -6464958.741     39182.577   2370901.910
10 0 59304  65742.000000  0   -6717491.302    225185.635   1503737.775
10 0 59304  65862.000000  0   -6849318.251    410615.504    610091.592
10 0 59304  65982.000000  0   -6858223.656    590100.288   -294297.184
10 0 59304  66102.000000  0   -6744257.387    758356.677  -1193509.753
10 0 59304  66222.000000  0   -6509726.895    910323.181  -2071736.747
10 0 59304  66342.000000  0   -6159145.863   1041288.171  -2913562.445
10 0 59304  66462.000000  0   -5699139.201   1147010.566  -3704242.828
10 0 59304  66582.000000  0   -5138304.081   1223828.455  -4429965.980
10 0 59304  66702.000000  0   -4487036.296   1268753.971  -5078090.745
10 0 59304  66822.000000  0   -3757325.378   1279552.227  -5637360.539
10 0 59304  66942.000000  0   -2962524.721   1254802.880  -6098089.311
10 0 59304  67062.000000  0   -2117101.457   1193942.635  -6452318.390
10 0 59304  67182.000000  0   -1236370.622   1097289.986  -6693942.741
10 0 59304  67302.000000  0    -336218.881    966050.536  -6818804.501
10 0 59304  67422.000000  0     567175.931    802303.323  -6824755.702
10 0 59304  67542.000000  0    1457627.437    608968.704  -6711693.074
10 0 59304  67662.000000  0    2319225.423    389757.301  -6481560.773
10 0 59304  67782.000000  0    3136614.109    149101.455  -6138320.196
10 0 59304  67902.000000  0    3895262.435   -107930.025  -5687888.577
10 0 59304  68022.000000  0    4581720.268   -375733.452  -5138046.406
10 0 59304  68142.000000  0    5183859.993   -648285.544  -4498315.678
10 0 59304  68262.000000  0    5691098.319   -919271.582  -3779805.540
10 0 59304  68382.000000  0    6094591.813  -1182223.504  -2995028.363
10 0 59304  68502.000000  0    6387402.748  -1430665.616  -2157688.286
10 0 59304  68622.000000  0    6564631.069  -1658264.427  -1282444.606
10 0 59304  68742.000000  0    6623507.644  -1858978.699   -384653.898
10 0 59304  68862.000000  0    6563446.428  -2027206.129    519903.595
10 0 59304  68982.000000  0    6386053.342  -2157923.101   1415308.949
10 0 59304  69102.000000  0    6095090.189  -2246813.116   2285793.599
10 0 59304  69222.000000  0    5696395.169  -2290381.457   3116026.160
10 0 59304  69342.000000  0    5197761.265  -2286051.616   3891390.532
10 0 59304  69462.000000  0    4608775.940  -2232242.223   4598247.506
10 0 59304  69582.000000  0    3940629.548  -2128422.104   5224176.208
10 0 59304  69702.000000  0    3205894.410  -1975143.535   5758193.350
10 0 59304  69822.000000  0    2418278.772  -1774051.744   6190942.360
10 0 59304  69942.000000  0    1592365.019  -1527871.246   6514851.461
10 0 59304  70062.000000  0     743335.398  -1240369.959   6724260.349
10 0 59304  70182.000000  0    -113309.604   -916300.804   6815513.318
10 0 59304  70302.000000  0    -962034.255   -561322.210   6787017.988
10 0 59304  70422.000000  0   -1787547.878   -181899.477   6639270.880
10 0 59304  70542.000000  0   -2575078.952    214812.570   6374849.374
10 0 59304  70662.000000  0   -3310638.979    621103.581   5998370.346
10 0 59304  70782.000000  0   -3981272.831   1028855.984   5516415.319
10 0 59304  70902.000000  0   -4575291.795   1429705.280   4937421.765
10 0 59304  71022.000000  0   -5082483.969   1815210.336   4271541.064
10 0 59304  71142.000000  0   -5494297.925   2177029.926   3530464.494
10 0 59304  71262.000000  0   -5803994.740   2507101.390   2727220.092
10 0 59304  71382.000000  0   -6006766.293   2797817.820   1875943.859
10 0 59304  71502.000000  0   -6099816.972   3042199.786    991627.864
10 0 59304  71622.000000  0   -6082404.548   3234056.842     89848.952
10 0 59304  71742.000000  0   -5955838.737   3368134.156   -813513.761
10 0 59304  71862.000000  0   -5723438.995   3440240.513  -1702567.244
99
